{"type":"FeatureCollection","features":[{"type":"Feature","geometry":{"type":"Polygon","coordinates":[[[4.92156015236413,52.37558215965234],[4.921538664965145,52.37552926350514],[4.923031735541749,52.3753009604151],[4.923511184280153,52.3752093039852],[4.924043563352159,52.37507902585292],[4.924252911967497,52.3750188810306],[4.924927419418575,52.374803097413846],[4.921573904007334,52.372698495504174],[4.920155125167732,52.371784944001675],[4.920092432274322,52.37176742234754],[4.920016979270464,52.371759628926625],[4.919845757326131,52.37177824082257],[4.919719190886265,52.371774442707114],[4.919605932945013,52.37175348557692],[4.9195038383055865,52.37171689789241],[4.919426920214948,52.37166007042931],[4.919353046512803,52.371576354771136],[4.919306530760875,52.37149112040303],[4.919284592789805,52.37140760092947],[4.918723970101461,52.37106996328908],[4.917683745427627,52.37060000162527],[4.9174863036290155,52.37042013863219],[4.917011535157271,52.36991600361717],[4.915129869217372,52.37058146143693],[4.914816911665716,52.3707155230935],[4.9144482756033,52.370905660579965],[4.914671755940705,52.371001489728826],[4.917657713971657,52.372107656469254],[4.920871363009984,52.374101702294055],[4.921126534873972,52.374898998244134],[4.921406331416522,52.375603736290465],[4.92156015236413,52.37558215965234]]]},"properties":{"project_name":"RESILIO blue-green roofs","city":"Amsterdam","reference_area":"Kattenburg","intervention_type":"blue-green roofs","spatial_precision":"official neighbourhood reference area; not an exact roof footprint","verification_status":"verified programme area","source_publisher":"RESILIO Amsterdam","source_url":"https://resilio.amsterdam/en/neighbourhood-pages/","area_weighted_priority":71.94295954591269,"area_weighted_lst_c":32.44413667087296,"very_high_overlap_share":0.015407389392035203,"comparison_scope":"contextual neighbourhood overlap; not exact intervention footprint"}},{"type":"Feature","geometry":{"type":"Polygon","coordinates":[[[4.917044344025649,52.35499909107432],[4.916840467440643,52.35491655574326],[4.916450241190352,52.354736400410836],[4.916085555490966,52.354537174603784],[4.915748920619077,52.35432024570046],[4.914589507716781,52.35487847887335],[4.9143043050118145,52.35515388326392],[4.913866673292161,52.35520511680697],[4.91367640937432,52.35523532757274],[4.913488785615217,52.355271201879724],[4.9131232675546075,52.35535958890341],[4.912946256125121,52.355411889481935],[4.912605789875311,52.35553208398146],[4.9122861592497475,52.355672080173264],[4.912017208715499,52.35580421696247],[4.911324983593572,52.355634516098775],[4.910873762915889,52.35639853666172],[4.908321823870928,52.36058991238401],[4.908561896801254,52.360639902300996],[4.908805064079167,52.36065892355784],[4.909032882633773,52.36065006532275],[4.909350439644844,52.36059786161908],[4.9096388380753995,52.360577266098055],[4.909955261111909,52.36058533684379],[4.910252562988938,52.360622773482085],[4.910560410547371,52.36069531292837],[4.910832772017289,52.36079424053223],[4.911084329849518,52.36092487340267],[4.911199706029699,52.36100270365173],[4.91128495564742,52.361073914558176],[4.9113659956875,52.36112426596115],[4.9114873145153455,52.36117919213855],[4.911622523817662,52.36122020707675],[4.911776148029804,52.361247041291634],[4.912846254959011,52.36135773050111],[4.914031444951842,52.3614949793579],[4.915075296083759,52.36178535167649],[4.915776702458789,52.36197869534834],[4.9160002917899375,52.36202712150472],[4.916236470598404,52.362066546691885],[4.916409875786489,52.362087836239695],[4.91748524040796,52.36212920903001],[4.917804821970759,52.36214379636264],[4.918125970622691,52.36219069987021],[4.918421906316881,52.36226600270964],[4.918702732106666,52.362372288571294],[4.918867971241924,52.36245532372947],[4.919024542047909,52.36255294738243],[4.919714758043194,52.36313535528922],[4.91987286342482,52.363220104465114],[4.920041768931699,52.363287289119285],[4.920207997214812,52.36333548991381],[4.920382910934684,52.36337033303292],[4.921100631036182,52.36343102372832],[4.921480419027626,52.36347755574371],[4.92176083491091,52.36352077490384],[4.9219132846743685,52.36356013813245],[4.922062122288725,52.3636149817817],[4.922196321957745,52.36368252130794],[4.922307895214424,52.36375732377912],[4.9233999063848986,52.36297602716603],[4.923492014406133,52.36289472564594],[4.923571964859276,52.362781227407936],[4.923979179252481,52.36193008548392],[4.924123429468296,52.36164208138166],[4.924619335384157,52.36093471890713],[4.9252903008747335,52.36002584987553],[4.925421241055092,52.3598459952716],[4.926388550234064,52.358286369547606],[4.9266866322284315,52.357865106837004],[4.919180117631918,52.35565484159612],[4.917467899063147,52.35514839599182],[4.917044344025649,52.35499909107432]]]},"properties":{"project_name":"RESILIO blue-green roofs","city":"Amsterdam","reference_area":"Oosterparkbuurt","intervention_type":"blue-green roofs","spatial_precision":"official neighbourhood reference area; not an exact roof footprint","verification_status":"verified programme area","source_publisher":"RESILIO Amsterdam","source_url":"https://resilio.amsterdam/en/neighbourhood-pages/","area_weighted_priority":79.42934431989005,"area_weighted_lst_c":35.14892927967137,"very_high_overlap_share":0.7029149050353384,"comparison_scope":"contextual neighbourhood overlap; not exact intervention footprint"}},{"type":"Feature","geometry":{"type":"Polygon","coordinates":[[[4.935102672798716,52.401399740440326],[4.9343417455182905,52.401712048277005],[4.933565089712654,52.40200951533831],[4.932773472957684,52.40229184766877],[4.938312007692054,52.40662035472107],[4.9392082009575455,52.40735505155555],[4.939818745062509,52.4072048027989],[4.940719111496573,52.40696742999403],[4.941611496410751,52.406719037469315],[4.9424955309042256,52.406459722883895],[4.943370860619849,52.40618960193575],[4.944237146105169,52.405908772411884],[4.9450940037630735,52.40561734092994],[4.945735263398983,52.405390134481785],[4.94644530427606,52.405128964610874],[4.947496183721293,52.4047231509848],[4.948869705663837,52.40415623279174],[4.949767078521554,52.40376427409064],[4.950356530305925,52.40349557121952],[4.951227069854688,52.40308160867807],[4.951798130647722,52.40279845975244],[4.947333175453972,52.39863037410896],[4.946559030929181,52.39790765960385],[4.94575888316746,52.39774931129758],[4.944781925508812,52.39806538365132],[4.942365994858138,52.39580704514151],[4.939362103846074,52.39695115033547],[4.933532158500824,52.3992635770537],[4.933978324647564,52.39962646206381],[4.935847118469876,52.401072912814925],[4.935102672798716,52.401399740440326]],[[4.940155710917717,52.39931604468517],[4.9402847618729755,52.399273750492185],[4.940375957490836,52.39925239836476],[4.940518195881938,52.39923117573355],[4.940664046121156,52.39922333115726],[4.9408101417329675,52.39922904966433],[4.940953163580737,52.39924819292343],[4.941089824886791,52.3992803261486],[4.942438340611602,52.39971354066475],[4.942585650773248,52.399746305318104],[4.942814645501533,52.39977868419222],[4.9429705292236115,52.39978877777133],[4.9431272850238965,52.399789563228616],[4.9433607936395685,52.39977328095818],[4.943513240525057,52.3997509515498],[4.943661413069762,52.399719654261546],[4.945454673126768,52.39918796893131],[4.947352225863554,52.40099557523666],[4.947363004406412,52.40105695580511],[4.939948135289661,52.40402837379403],[4.939896942763417,52.40404252476667],[4.939823399284232,52.4040508661983],[4.939730791794976,52.40404367686487],[4.939662994166953,52.40402434902773],[4.939606324100362,52.403994484759075],[4.935847118469876,52.401072912814925],[4.936320367228664,52.400865860382915],[4.940155710917717,52.39931604468517]]]},"properties":{"project_name":"RESILIO blue-green roofs","city":"Amsterdam","reference_area":"Slotermeer","intervention_type":"blue-green roofs","spatial_precision":"official neighbourhood reference area; not an exact roof footprint","verification_status":"verified programme area","source_publisher":"RESILIO Amsterdam","source_url":"https://resilio.amsterdam/en/neighbourhood-pages/","area_weighted_priority":53.220509520730154,"area_weighted_lst_c":32.48945369059863,"very_high_overlap_share":0.0,"comparison_scope":"contextual neighbourhood overlap; not exact intervention footprint"}},{"type":"Feature","geometry":{"type":"Polygon","coordinates":[[[4.940460461190809,52.35838032255848],[4.937793343312523,52.35778733869042],[4.93742722771082,52.35773904139096],[4.937302236033546,52.357790785036265],[4.93731749690226,52.35780438751288],[4.937258305828183,52.35784381633492],[4.936749342611455,52.358057451024855],[4.935993880764897,52.35840036720863],[4.935337555421078,52.358702825851424],[4.9351639683763295,52.358797810360876],[4.935047813768605,52.358787066861005],[4.9350133286505855,52.35876567920878],[4.934855518329371,52.35883793069528],[4.934884599303641,52.35886815063968],[4.934873777579354,52.35889289739623],[4.934281737245173,52.35923976140502],[4.934166169169305,52.35931526534994],[4.933907273703716,52.35949627544059],[4.9337601835848615,52.35961944593759],[4.93355747645264,52.35976636437577],[4.933338311369589,52.3599434360486],[4.932965521281336,52.360302098822814],[4.932818488312067,52.36047938335487],[4.932728680749714,52.36056470946229],[4.932496517481553,52.360829045250554],[4.9323847272838925,52.36085036608299],[4.932336011821464,52.3609196539004],[4.9323092056485045,52.36091245061398],[4.932115456374879,52.36119690392929],[4.932024697998058,52.36134459154322],[4.932041626335996,52.36134444092301],[4.932026876496324,52.361371221507625],[4.9320346944788085,52.36139907750691],[4.932078916449113,52.36142733410353],[4.932068494746728,52.361460099168966],[4.931869036212395,52.36176261337701],[4.931722181304089,52.36211758415422],[4.931699897405451,52.3621431583198],[4.931655172648932,52.36224819631782],[4.931472455154142,52.36279692052118],[4.9314671216091135,52.36288595915688],[4.931403811001283,52.363216624733205],[4.9313482186358115,52.36321464910365],[4.931315032416726,52.363221001453844],[4.931278322048332,52.36324456066433],[4.931269071752108,52.3632760988459],[4.931236004520934,52.36327229552636],[4.931223527875623,52.363380630196886],[4.931211374155802,52.36348610801781],[4.931244898680183,52.36348971537513],[4.931244718364318,52.36352012008231],[4.931266124108623,52.3635429503972],[4.931330083079698,52.36355942848278],[4.931286863828153,52.36384920536687],[4.931263700815537,52.36422453250961],[4.931272805134517,52.36453868775846],[4.931300792146009,52.364612629501444],[4.931258128057624,52.3646153862099],[4.931320585086646,52.3649596579513],[4.931351823505016,52.36495724369964],[4.9314497980010925,52.36523142220034],[4.931745360475278,52.365773439347045],[4.9317693282493,52.36580712756561],[4.931777917773764,52.365805650672975],[4.931805241765225,52.36589714269922],[4.931789512260046,52.365917646052196],[4.931720078643664,52.36594640922337],[4.932091502364004,52.36657103554738],[4.93236640856716,52.366548777854376],[4.939460054138701,52.366647286247535],[4.946141313899832,52.366674862369955],[4.949983975761206,52.36670487004366],[4.951882902400607,52.36700199852318],[4.951873560817436,52.36741085895095],[4.954377129163716,52.36743778804638],[4.954638867764351,52.3674703362669],[4.954898111853023,52.36751934023644],[4.955132274309276,52.36757932493796],[4.955422192155553,52.36767203893688],[4.955600581965685,52.367745031200585],[4.955764823295026,52.36782957473778],[4.955940410217899,52.36794482534181],[4.956569112176884,52.368460804554786],[4.956975336129074,52.36727027196511],[4.957301768722749,52.365899532575135],[4.957518527332338,52.36498927360829],[4.96130591571043,52.359130733652506],[4.959443905351477,52.35823196449782],[4.959182810115053,52.35801167601525],[4.959082577643901,52.35794174879279],[4.9589308205106954,52.357873342760335],[4.958737283677306,52.35782495372374],[4.958535290981481,52.357793376700066],[4.957084272569277,52.357767450970044],[4.956492835086304,52.35778737444758],[4.952936636996902,52.35790708612895],[4.944677250308564,52.358262827656944],[4.94114903478104,52.35841007088147],[4.940943340215865,52.358413286215146],[4.94070061810337,52.358403904578815],[4.940460461190809,52.35838032255848]]]},"properties":{"project_name":"RESILIO blue-green roofs","city":"Amsterdam","reference_area":"Indische Buurt","intervention_type":"blue-green roofs","spatial_precision":"official neighbourhood-group reference area; not an exact roof footprint","verification_status":"verified programme area","source_publisher":"RESILIO Amsterdam","source_url":"https://resilio.amsterdam/en/neighbourhood-pages/","area_weighted_priority":69.77391588432468,"area_weighted_lst_c":32.943850466958054,"very_high_overlap_share":0.5383082442121151,"comparison_scope":"contextual neighbourhood overlap; not exact intervention footprint"}}]}